CTC2_L_00086016-03
1 36231U 25751OH  26070.40842593  .00000000  00000+0  00000-0 0  9994
2 36231  50.0000 180.0000 0000000   0.0000   0.0000 15.18623435    10
CTC2_L_00086016-04
1 36232U 26487QW  26070.40842593  .00000000  00000+0  00000-0 0  9992
2 36232  50.0000 180.0000 0000000   0.0000  90.0000 15.18623435    10
CTC2_L_00086017-01
1 36233U 26666JQ  26070.40842593  .00000000  00000+0  00000-0 0  9992
2 36233  50.0000 192.0000 0000000   0.0000 192.0000 15.18623435    17
CTC2_L_00086017-02
1 36234U 22605XI  26070.40842593  .00000000  00000+0  00000-0 0  9992
2 36234  50.0000 192.0000 0000000   0.0000 282.0000 15.18623435    18
CTC2_L_00086017-03
1 36235U 25156FQ  26070.40842593  .00000000  00000+0  00000-0 0  9997
2 36235  50.0000 192.0000 0000000   0.0000  12.0000 15.18623435    10
CTC2_L_00086017-04
1 36236U 23927DC  26070.40842593  .00000000  00000+0  00000-0 0  9992
2 36236  50.0000 192.0000 0000000   0.0000 102.0000 15.18623435    11
CTC2_L_00086018-01
1 36237U 23541LR  26070.40842593  .00000000  00000+0  00000-0 0  9995
2 36237  50.0000 204.0000 0000000   0.0000 204.0000 15.18623435    19
CTC2_L_00086018-02
1 36238U 24463KM  26070.40842593  .00000000  00000+0  00000-0 0  9990
2 36238  50.0000 204.0000 0000000   0.0000 294.0000 15.18623435    19
CTC2_L_00086018-03
1 36239U 25889LO  26070.40842593  .00000000  00000+0  00000-0 0  9994
2 36239  50.0000 204.0000 0000000   0.0000  24.0000 15.18623435    11
CTC2_L_00086018-04
1 36240U 22660PV  26070.40842593  .00000000  00000+0  00000-0 0  9990
2 36240  50.0000 204.0000 0000000   0.0000 114.0000 15.18623435    13
CTC2_L_00086019-01
1 36241U 23870NF  26070.40842593  .00000000  00000+0  00000-0 0  9995
2 36241  50.0000 216.0000 0000000   0.0000 216.0000 15.18623435    10
CTC2_L_00086019-02
1 36242U 25660KY  26070.40842593  .00000000  00000+0  00000-0 0  9995
2 36242  50.0000 216.0000 0000000   0.0000 306.0000 15.18623435    11
CTC2_L_00086019-03
1 36243U 24652CR  26070.40842593  .00000000  00000+0  00000-0 0  9996
2 36243  50.0000 216.0000 0000000   0.0000  36.0000 15.18623435    12
CTC2_L_00086019-04
1 36244U 26337HB  26070.40842593  .00000000  00000+0  00000-0 0  9999
2 36244  50.0000 216.0000 0000000   0.0000 126.0000 15.18623435    13
CTC2_L_00086020-01
1 36245U 22937MY  26070.40842593  .00000000  00000+0  00000-0 0  9992
2 36245  50.0000 228.0000 0000000   0.0000 228.0000 15.18623435    10
CTC2_L_00086020-02
1 36246U 22124EZ  26070.40842593  .00000000  00000+0  00000-0 0  9991
2 36246  50.0000 228.0000 0000000   0.0000 318.0000 15.18623435    11
CTC2_L_00086020-03
1 36247U 26263OY  26070.40842593  .00000000  00000+0  00000-0 0  9990
2 36247  50.0000 228.0000 0000000   0.0000  48.0000 15.18623435    12
CTC2_L_00086020-04
1 36248U 22481OC  26070.40842593  .00000000  00000+0  00000-0 0  9999
2 36248  50.0000 228.0000 0000000   0.0000 138.0000 15.18623435    13
CTC2_L_00086021-01
1 36249U 23876WZ  26070.40842593  .00000000  00000+0  00000-0 0  9999
2 36249  50.0000 240.0000 0000000   0.0000 240.0000 15.18623435    12
CTC2_L_00086021-02
1 36250U 24004ZU  26070.40842593  .00000000  00000+0  00000-0 0  9995
2 36250  50.0000 240.0000 0000000   0.0000 330.0000 15.18623435    14
CTC2_L_00086021-03
1 36251U 23036FR  26070.40842593  .00000000  00000+0  00000-0 0  9990
2 36251  50.0000 240.0000 0000000   0.0000  60.0000 15.18623435    15
CTC2_L_00086021-04
1 36252U 22694DE  26070.40842593  .00000000  00000+0  00000-0 0  9990
2 36252  50.0000 240.0000 0000000   0.0000 150.0000 15.18623435    16
CTC2_L_00086022-01
1 36253U 26713IS  26070.40842593  .00000000  00000+0  00000-0 0  9997
2 36253  50.0000 252.0000 0000000   0.0000 252.0000 15.18623435    13
CTC2_L_00086022-02
1 36254U 25680FK  26070.40842593  .00000000  00000+0  00000-0 0  9990
2 36254  50.0000 252.0000 0000000   0.0000 342.0000 15.18623435    14
CTC2_L_00086022-03
1 36255U 22971LN  26070.40842593  .00000000  00000+0  00000-0 0  9991
2 36255  50.0000 252.0000 0000000   0.0000  72.0000 15.18623435    15
CTC2_L_00086022-04
1 36256U 24268LH  26070.40842593  .00000000  00000+0  00000-0 0  9993
2 36256  50.0000 252.0000 0000000   0.0000 162.0000 15.18623435    16
CTC2_L_00086023-01
1 36257U 25215YI  26070.40842593  .00000000  00000+0  00000-0 0  9997
2 36257  50.0000 264.0000 0000000   0.0000 264.0000 15.18623435    13
CTC2_L_00086023-02
1 36258U 25983LP  26070.40842593  .00000000  00000+0  00000-0 0  9990
2 36258  50.0000 264.0000 0000000   0.0000 354.0000 15.18623435    14
CTC2_L_00086023-03
1 36259U 23029JD  26070.40842593  .00000000  00000+0  00000-0 0  9990
2 36259  50.0000 264.0000 0000000   0.0000  84.0000 15.18623435    15
CTC2_L_00086023-04
1 36260U 23503UH  26070.40842593  .00000000  00000+0  00000-0 0  9999
2 36260  50.0000 264.0000 0000000   0.0000 174.0000 15.18623435    17
CTC2_L_00086024-01
1 36261U 23098L   26070.40842593  .00000000  00000+0  00000-0 0  9999
2 36261  50.0000 276.0000 0000000   0.0000 276.0000 15.18623435    14
CTC2_L_00086024-02
1 36262U 26558LR  26070.40842593  .00000000  00000+0  00000-0 0  9994
2 36262  50.0000 276.0000 0000000   0.0000   6.0000 15.18623435    16
CTC2_L_00086024-03
1 36263U 23279SH  26070.40842593  .00000000  00000+0  00000-0 0  9992
2 36263  50.0000 276.0000 0000000   0.0000  96.0000 15.18623435    16
CTC2_L_00086024-04
1 36264U 22968BC  26070.40842593  .00000000  00000+0  00000-0 0  9997
2 36264  50.0000 276.0000 0000000   0.0000 186.0000 15.18623435    17
CTC2_L_00086025-01
1 36265U 26267ZW  26070.40842593  .00000000  00000+0  00000-0 0  9994
2 36265  50.0000 288.0000 0000000   0.0000 288.0000 15.18623435    14
CTC2_L_00086025-02
1 36266U 25896JH  26070.40842593  .00000000  00000+0  00000-0 0  9992
2 36266  50.0000 288.0000 0000000   0.0000  18.0000 15.18623435    16
CTC2_L_00086025-03
1 36267U 24250IR  26070.40842593  .00000000  00000+0  00000-0 0  9996
2 36267  50.0000 288.0000 0000000   0.0000 108.0000 15.18623435    17
CTC2_L_00086025-04
1 36268U 24098AN  26070.40842593  .00000000  00000+0  00000-0 0  9997
2 36268  50.0000 288.0000 0000000   0.0000 198.0000 15.18623435    17
CTC2_L_00086026-01
1 36269U 25092EY  26070.40842593  .00000000  00000+0  00000-0 0  9993
2 36269  50.0000 300.0000 0000000   0.0000 300.0000 15.18623435    18
CTC2_L_00086026-02
1 36270U 24903XY  26070.40842593  .00000000  00000+0  00000-0 0  9995
2 36270  50.0000 300.0000 0000000   0.0000  30.0000 15.18623435    10
CTC2_L_00086026-03
1 36271U 23495YZ  26070.40842593  .00000000  00000+0  00000-0 0  9991
2 36271  50.0000 300.0000 0000000   0.0000 120.0000 15.18623435    11
CTC2_L_00086026-04
1 36272U 22439FT  26070.40842593  .00000000  00000+0  00000-0 0  9999
2 36272  50.0000 300.0000 0000000   0.0000 210.0000 15.18623435    12
CTC2_L_00086027-01
1 36273U 25696HF  26070.40842593  .00000000  00000+0  00000-0 0  9998
2 36273  50.0000 312.0000 0000000   0.0000 312.0000 15.18623435    19
CTC2_L_00086027-02
1 36274U 22460HL  26070.40842593  .00000000  00000+0  00000-0 0  9995
2 36274  50.0000 312.0000 0000000   0.0000  42.0000 15.18623435    10
CTC2_L_00086027-03
1 36275U 26410GI  26070.40842593  .00000000  00000+0  00000-0 0  9995
2 36275  50.0000 312.0000 0000000   0.0000 132.0000 15.18623435    11
CTC2_L_00086027-04
1 36276U 24690NL  26070.40842593  .00000000  00000+0  00000-0 0  9994
2 36276  50.0000 312.0000 0000000   0.0000 222.0000 15.18623435    12
CTC2_L_00086028-01
1 36277U 23085UN  26070.40842593  .00000000  00000+0  00000-0 0  9992
2 36277  50.0000 324.0000 0000000   0.0000 324.0000 15.18623435    19
CTC2_L_00086028-02
1 36278U 26328PU  26070.40842593  .00000000  00000+0  00000-0 0  9996
2 36278  50.0000 324.0000 0000000   0.0000  54.0000 15.18623435    10
CTC2_L_00086028-03
1 36279U 24031AQ  26070.40842593  .00000000  00000+0  00000-0 0  9996
2 36279  50.0000 324.0000 0000000   0.0000 144.0000 15.18623435    11
CTC2_L_00086028-04
1 36280U 26805EH  26070.40842593  .00000000  00000+0  00000-0 0  9999
2 36280  50.0000 324.0000 0000000   0.0000 234.0000 15.18623435    13
CTC2_L_00086029-01
1 36281U 26133MB  26070.40842593  .00000000  00000+0  00000-0 0  9994
2 36281  50.0000 336.0000 0000000   0.0000 336.0000 15.18623435    10
CTC2_L_00086029-02
1 36282U 26494N   26070.40842593  .00000000  00000+0  00000-0 0  9995
2 36282  50.0000 336.0000 0000000   0.0000  66.0000 15.18623435    11
CTC2_L_00086029-03
1 36283U 25397BF  26070.40842593  .00000000  00000+0  00000-0 0  9997
2 36283  50.0000 336.0000 0000000   0.0000 156.0000 15.18623435    12
CTC2_L_00086029-04
1 36284U 22377UE  26070.40842593  .00000000  00000+0  00000-0 0  9993
2 36284  50.0000 336.0000 0000000   0.0000 246.0000 15.18623435    13
CTC2_L_00086030-01
1 36285U 23146RK  26070.40842593  .00000000  00000+0  00000-0 0  9999
2 36285  50.0000 348.0000 0000000   0.0000 348.0000 15.18623435    10
CTC2_L_00086030-02
1 36286U 25519MU  26070.40842593  .00000000  00000+0  00000-0 0  9996
2 36286  50.0000 348.0000 0000000   0.0000  78.0000 15.18623435    11
CTC2_L_00086030-03
1 36287U 22698CE  26070.40842593  .00000000  00000+0  00000-0 0  9992
2 36287  50.0000 348.0000 0000000   0.0000 168.0000 15.18623435    12
CTC2_L_00086030-04
1 36288U 24391RD  26070.40842593  .00000000  00000+0  00000-0 0  9995
2 36288  50.0000 348.0000 0000000   0.0000 258.0000 15.18623435    13
